GSAT0101 (PRN E11)      
1 37846U 11060A   22062.66584385 -.00000093  00000+0  00000+0 0  9994
2 37846  56.9588  24.2119 0004020 345.9009  14.0609  1.70475028 64415
GSAT0102 (PRN E12)      
1 37847U 11060B   22062.59115014 -.00000093  00000+0  00000+0 0  9996
2 37847  56.9594  24.2135 0005366 325.4023  35.2511  1.70475321 64428
GSAT0103 (PRN E19)      
1 38857U 12055A   22062.11958946 -.00000008  00000+0  00000+0 0  9996
2 38857  55.1063 144.6226 0004051 255.0308 104.9716  1.70473597 58296
GSAT0104 (PRN E20)      
1 38858U 12055B   22062.67647043 -.00000006  00000+0  00000+0 0  9999
2 38858  55.1063 144.6086 0001769 237.8796 122.1536  1.70473858 58307
GSAT0201 (PRN E18)      
1 40128U 14050A   22060.40934402 -.00000096  00000+0  00000+0 0  9995
2 40128  50.3480 336.5886 1630581 120.1808 256.9588  1.85519157 49211
GSAT0202 (PRN E14)      
1 40129U 14050B   22059.59274553 -.00000093  00000+0  00000+0 0  9995
2 40129  50.3750 335.6784 1627703 120.9607 256.0391  1.85519808 51361
GSAT0203 (PRN E26)      
1 40544U 15017A   22061.86037313 -.00000092  00000+0  00000+0 0  9993
2 40544  56.7537  24.2816 0004425 280.3213  79.6021  1.70475725 42480
GSAT0204 (PRN E22)      
1 40545U 15017B   22062.11299355 -.00000092  00000+0  00000+0 0  9999
2 40545  56.7598  24.2866 0003660 270.4639  89.4674  1.70475516  5531
GSAT0205 (PRN E24)      
1 40889U 15045A   22062.46672989  .00000016  00000+0  00000+0 0  9992
2 40889  55.6941 264.8881 0006227  26.9750 333.0739  1.70475134 40301
GSAT0206 (PRN E30)      
1 40890U 15045B   22061.51435725  .00000021  00000+0  00000+0 0  9990
2 40890  55.6938 264.9105 0004394  24.3165 335.7277  1.70473373 40314
GSAT0209 (PRN E09)      
1 41174U 15079A   22062.27616509 -.00000007  00000+0  00000+0 0  9993
2 41174  55.1222 144.3210 0003819 303.2392  56.7730  1.70473639 38069
GSAT0208 (PRN E08)      
1 41175U 15079B   22062.49568953 -.00000006  00000+0  00000+0 0  9996
2 41175  55.1206 144.3136 0003112 301.0154  59.0042  1.70474978 38482
GSAT0211 (PRN E02)      
1 41549U 16030A   22062.61516688  .00000016  00000+0  00000+0 0  9991
2 41549  55.8382 264.8020 0004313 358.6341   1.3802  1.70474838 35968
GSAT0210 (PRN E01)      
1 41550U 16030B   22062.90785189  .00000015  00000+0  00000+0 0  9998
2 41550  55.8376 264.7952 0002494 340.6650  19.3390  1.70475016 35968
GSAT0207 (PRN E07)      
1 41859U 16069A   22062.56858886 -.00000007  00000+0  00000+0 0  9991
2 41859  54.7820 144.5202 0004031 287.3282  72.6776  1.70473705 32692
GSAT0212 (PRN E03)      
1 41860U 16069B   22062.42200524 -.00000007  00000+0  00000+0 0  9998
2 41860  54.7797 144.5220 0002561 311.9172  48.1099  1.70473630 32946
GSAT0213 (PRN E04)      
1 41861U 16069C   22061.61430137 -.00000010  00000+0  00000+0 0  9998
2 41861  54.7820 144.5496 0003979 263.4497  96.5489  1.70473650 32799
GSAT0214 (PRN E05)      
1 41862U 16069D   22062.34797849 -.00000007  00000+0  00000+0 0  9992
2 41862  54.7805 144.5238 0003054 265.2732  94.7405  1.70473767 32936
GSAT0215 (PRN E21)      
1 43055U 17079A   22062.83873464  .00000015  00000+0  00000+0 0  9990
2 43055  55.8137 264.6297 0001926 349.4500  10.5595  1.70474131 26288
GSAT0216 (PRN E25)      
1 43056U 17079B   22061.37130053  .00000023  00000+0  00000+0 0  9998
2 43056  55.8146 264.6699 0003080 317.3889  42.6114  1.70474199 26278
GSAT0217 (PRN E27)      
1 43057U 17079C   22062.76466568  .00000016  00000+0  00000+0 0  9998
2 43057  55.8120 264.6315 0003351 335.8102  24.1881  1.70474132 26284
GSAT0218 (PRN E31)      
1 43058U 17079D   22062.98466701  .00000015  00000+0  00000+0 0  9991
2 43058  55.8121 264.6226 0003192 307.3432  52.6402  1.70474218 26314
GSAT0221 (PRN E15)      
1 43564U 18060A   22062.29608143 -.00000092  00000+0  00000+0 0  9992
2 43564  57.1366  24.0581 0005304 292.6288  67.2879  1.70475560 22458
GSAT0222 (PRN E33)      
1 43565U 18060B   22061.92934064 -.00000092  00000+0  00000+0 0  9996
2 43565  57.1386  24.0683 0005137 299.9838  59.9381  1.70475526 22491
GSAT0219 (PRN E36)      
1 43566U 18060C   22063.32308585 -.00000093  00000+0  00000+0 0  9997
2 43566  57.1399  24.0325 0004810 301.8644  58.0624  1.70475597 22492
GSAT0220 (PRN E13)      
1 43567U 18060D   22062.36996314 -.00000092  00000+0  00000+0 0  9993
2 43567  57.1390  24.0581 0004830 297.4227  62.5010  1.70475489 22463
GSAT0223                
1 49809U 21116A   22063.39428675 -.00000093  00000+0  00000+0 0  9999
2 49809  57.1323  23.9292 0001669 267.1583  91.3528  1.70475709  1485
GSAT0224                
1 49810U 21116B   22061.45284111 -.00000091  00000+0  00000+0 0  9999
2 49810  57.1315  23.9798 0001457 288.0256  71.4714  1.70475554  1476
